[
  {
    "sun_pos": [
      -101976416.70758924,
      103135102.36626586,
      44703842.068309166
    ],
    "sc_pos_i": [
      -2578.251525673259,
      3506.4274780551764,
      5313.521994209881
    ],
    "sc_vel_i": [
      -2.173347005539433,
      5.569045238992815,
      -4.726278770347857
    ],
    "jd": 2459796.1155787036,
    "line1": "1 52191U 22033AL  22215.67153162  .00003692  00000+0  16551-3 0  9991",
    "line2": "2 52191  97.3947 296.2757 0011168 176.4706 183.6610 15.21791916 18854"
  },
  {
    "sun_pos": [
      -102132602.2430535,
      103002441.88952225,
      44656962.96062185
    ],
    "sc_pos_i": [
      -1664.2011219008903,
      4597.76199716761,
      -4840.83095924774
    ],
    "sc_vel_i": [
      3.0852166371389655,
      -4.475051027018202,
      -5.323809673869925
    ],
    "jd": 2459796.198912037,
    "line1": "1 52191U 22033AL  22215.67153162  .00003692  00000+0  16551-3 0  9991",
    "line2": "2 52191  97.3947 296.2757 0011168 176.4706 183.6610 15.21791916 18854"
  },
  {
    "sun_pos": [
      -102292300.003634,
      102879782.4698334,
      44599282.415869825
    ],
    "sc_pos_i": [
      2963.075499024644,
      -4514.665037729231,
      -4281.6162732507755
    ],
    "sc_vel_i": [
      1.5122855827317054,
      -4.578068452772063,
      5.871493982381863
    ],
    "jd": 2459796.2822453706,
    "line1": "1 52191U 22033AL  22215.67153162  .00003692  00000+0  16551-3 0  9991",
    "line2": "2 52191  97.3947 296.2757 0011168 176.4706 183.6610 15.21791916 18854"
  },
  {
    "sun_pos": [
      -102445256.3622546,
      102746932.4383478,
      44532052.35661471
    ],
    "sc_pos_i": [
      1050.2641889913848,
      -3638.9316554189877,
      5739.353214820614
    ],
    "sc_vel_i": [
      -3.424239170221057,
      5.448977223256967,
      4.063102287563334
    ],
    "jd": 2459796.3655787036,
    "line1": "1 52191U 22033AL  22215.67153162  .00003692  00000+0  16551-3 0  9991",
    "line2": "2 52191  97.3947 296.2757 0011168 176.4706 183.6610 15.21791916 18854"
  },
  {
    "sun_pos": [
      -102595677.72546369,
      102605830.9749941,
      44477487.17433982
    ],
    "sc_pos_i": [
      -3195.918525445087,
      5286.0335232701855,
      3007.79496049006
    ],
    "sc_vel_i": [
      -0.7789050111444908,
      3.3965001949904736,
      -6.779775226209847
    ],
    "jd": 2459796.448912037,
    "line1": "1 52191U 22033AL  22216.19756462  .00003544  00000+0  15899-3 0  9991",
    "line2": "2 52191  97.3946 296.7928 0011211 174.6422 185.4937 15.21795354 18933"
  },
  {
    "sun_pos": [
      -102752995.15765272,
      102476281.41300254,
      44429532.29250745
    ],
    "sc_pos_i": [
      -344.09603961585816,
      2457.151183066849,
      -6421.604429543162
    ],
    "sc_vel_i": [
      3.6071746049571773,
      -6.177828235175919,
      -2.566718509267044
    ],
    "jd": 2459796.5322453706,
    "line1": "1 52191U 22033AL  22216.19756462  .00003544  00000+0  15899-3 0  9991",
    "line2": "2 52191  97.3946 296.7928 0011211 174.6422 185.4937 15.21795354 18933"
  },
  {
    "sun_pos": [
      -102910900.26929204,
      102351982.85138708,
      44367277.94168598
    ],
    "sc_pos_i": [
      3297.6539665477308,
      -5824.423373202597,
      -1638.9652805232647
    ],
    "sc_vel_i": [
      0.004309019715245419,
      -2.050762513314037,
      7.319794957135107
    ],
    "jd": 2459796.6155787036,
    "line1": "1 52191U 22033AL  22216.19756462  .00003544  00000+0  15899-3 0  9991",
    "line2": "2 52191  97.3946 296.7928 0011211 174.6422 185.4937 15.21795354 18933"
  },
  {
    "sun_pos": [
      -103061314.32574108,
      102214595.99511041,
      44301326.945045196
    ],
    "sc_pos_i": [
      -349.0942391320299,
      -1219.1426141054897,
      6752.998690859535
    ],
    "sc_vel_i": [
      -3.631639910414557,
      6.617491638288857,
      0.9962093134720018
    ],
    "jd": 2459796.698912037,
    "line1": "1 52191U 22033AL  22216.19756462  .00003544  00000+0  15899-3 0  9991",
    "line2": "2 52191  97.3946 296.7928 0011211 174.6422 185.4937 15.21795354 18933"
  },
  {
    "sun_pos": [
      -103212294.44611461,
      102074326.24751523,
      44250299.464348555
    ],
    "sc_pos_i": [
      -3226.910410614829,
      6067.845227273819,
      134.23630799583046
    ],
    "sc_vel_i": [
      0.7918106996888759,
      0.5990337098742059,
      -7.556177191399594
    ],
    "jd": 2459796.7822453706,
    "line1": "1 52191U 22033AL  22216.19756462  .00003544  00000+0  15899-3 0  9991",
    "line2": "2 52191  97.3946 296.7928 0011211 174.6422 185.4937 15.21795354 18933"
  },
  {
    "sun_pos": [
      -103370243.14410028,
      101947336.45813797,
      44199503.85173015
    ],
    "sc_pos_i": [
      1067.0299060636225,
      -126.0538746357727,
      -6803.493802418561
    ],
    "sc_vel_i": [
      3.4694695433966176,
      -6.724215146780063,
      0.6604677942661416
    ],
    "jd": 2459796.8655787036,
    "line1": "1 52191U 22033AL  22216.19756462  .00003544  00000+0  15899-3 0  9991",
    "line2": "2 52191  97.3946 296.7928 0011211 174.6422 185.4937 15.21795354 18933"
  }
]